[{"OBJECT_NAME":"LEMUR-2-DEVERILL-M-T","OBJECT_ID":"2023-100F","EPOCH":"2026-03-09T12:28:46.594272","MEAN_MOTION":15.34744564,"ECCENTRICITY":0.00079755,"INCLINATION":99.4583,"RA_OF_ASC_NODE":78.9092,"ARG_OF_PERICENTER":29.3685,"MEAN_ANOMALY":330.7998,"EPHEMERIS_TYPE":0,"CLASSIFICATION_TYPE":"U","NORAD_CAT_ID":57391,"ELEMENT_SET_NO":999,"REV_AT_EPOCH":14593,"BSTAR":0.0008498245,"MEAN_MOTION_DOT":0.0002862,"MEAN_MOTION_DDOT":0},{"OBJECT_NAME":"STARLINK-30877","OBJECT_ID":"2023-171N","EPOCH":"2026-03-09T22:00:01.999584","MEAN_MOTION":15.26244967,"ECCENTRICITY":0.00015645,"INCLINATION":43.0015,"RA_OF_ASC_NODE":283.7231,"ARG_OF_PERICENTER":283.3438,"MEAN_ANOMALY":10.2725,"EPHEMERIS_TYPE":0,"CLASSIFICATION_TYPE":"U","NORAD_CAT_ID":58242,"ELEMENT_SET_NO":999,"REV_AT_EPOCH":572,"BSTAR":0.024263331,"MEAN_MOTION_DOT":0.00685806,"MEAN_MOTION_DDOT":0}]
